[{"OBJECT_NAME":"SALSAT","OBJECT_ID":"2020-068K","EPOCH":"2026-03-09T22:26:21.804576","MEAN_MOTION":15.28191989,"ECCENTRICITY":0.00082652,"INCLINATION":97.8859,"RA_OF_ASC_NODE":66.0795,"ARG_OF_PERICENTER":295.8051,"MEAN_ANOMALY":64.2334,"EPHEMERIS_TYPE":0,"CLASSIFICATION_TYPE":"U","NORAD_CAT_ID":46495,"ELEMENT_SET_NO":999,"REV_AT_EPOCH":30019,"BSTAR":0.00040842582,"MEAN_MOTION_DOT":0.00011156,"MEAN_MOTION_DDOT":0},{"OBJECT_NAME":"STARLINK-36258","OBJECT_ID":"2025-299C","EPOCH":"2026-03-09T07:06:36.567648","MEAN_MOTION":15.2762701,"ECCENTRICITY":0.00011749,"INCLINATION":43.0009,"RA_OF_ASC_NODE":171.4269,"ARG_OF_PERICENTER":249.4458,"MEAN_ANOMALY":110.6268,"EPHEMERIS_TYPE":0,"CLASSIFICATION_TYPE":"U","NORAD_CAT_ID":67104,"ELEMENT_SET_NO":999,"REV_AT_EPOCH":1305,"BSTAR":0.0011733066,"MEAN_MOTION_DOT":0.00032212,"MEAN_MOTION_DDOT":0}]
